SENTINEL-6              
1 46984U 20086A   24030.56878113 -.00000036  00000+0  10917-3 0  9995
2 46984  66.0415 139.1825 0007746 270.2060  89.8068 12.80930325149078
